[Satellite]
VERSION=1.1
NAME=EAGLE 2
NICKNAME=EAGLE 2
TLE1=1 39436U 13066W   17185.83182028  .00014837  00000-0  40225-3 0  9994
TLE2=2 39436  97.7094 292.6493 0010289  27.0011 333.1766 15.37694866199361
